{
    "links": {
        "self": "http://www.neowsapp.com/rest/v1/neo/3838857?api_key=iIulBulltgU6a56xZRHN4H3l9WmuAYTsLGpBGhQ2"
    },
    "id": "3838857",
    "neo_reference_id": "3838857",
    "name": "(2019 DM1)",
    "designation": "2019 DM1",
    "nasa_jpl_url": "http://ssd.jpl.nasa.gov/sbdb.cgi?sstr=3838857",
    "absolute_magnitude_h": 28.0,
    "estimated_diameter": {
        "kilometers": {
            "estimated_diameter_min": 0.0066765941,
            "estimated_diameter_max": 0.0149293183
        },
        "meters": {
            "estimated_diameter_min": 6.676594135,
            "estimated_diameter_max": 14.9293183439
        },
        "miles": {
            "estimated_diameter_min": 0.004148642,
            "estimated_diameter_max": 0.0092766455
        },
        "feet": {
            "estimated_diameter_min": 21.9048371017,
            "estimated_diameter_max": 48.9807047955
        }
    },
    "is_potentially_hazardous_asteroid": false,
    "close_approach_data": [
        {
            "close_approach_date": "1984-06-02",
            "close_approach_date_full": "1984-Jun-02 08:52",
            "epoch_date_close_approach": 455014320000,
            "relative_velocity": {
                "kilometers_per_second": "6.1824006709",
                "kilometers_per_hour": "22256.6424154107",
                "miles_per_hour": "13829.4120608423"
            },
            "miss_distance": {
                "astronomical": "1.6004768662",
                "lunar": "622.5855009518",
                "kilometers": "239427930.167794994",
                "miles": "148773617.0819751572"
            },
            "orbiting_body": "Juptr"
        },
        {
            "close_approach_date": "2019-02-26",
            "close_approach_date_full": "2019-Feb-26 19:24",
            "epoch_date_close_approach": 1551209040000,
            "relative_velocity": {
                "kilometers_per_second": "17.6893410923",
                "kilometers_per_hour": "63681.6279322757",
                "miles_per_hour": "39569.2870893632"
            },
            "miss_distance": {
                "astronomical": "0.0033875693",
                "lunar": "1.3177644577",
                "kilometers": "506773.151757391",
                "miles": "314894.2346623558"
            },
            "orbiting_body": "Earth"
        },
        {
            "close_approach_date": "2019-02-26",
            "close_approach_date_full": "2019-Feb-26 19:59",
            "epoch_date_close_approach": 1551211140000,
            "relative_velocity": {
                "kilometers_per_second": "18.6721043049",
                "kilometers_per_hour": "67219.5754975788",
                "miles_per_hour": "41767.6301195928"
            },
            "miss_distance": {
                "astronomical": "0.002229941",
                "lunar": "0.867447049",
                "kilometers": "333594.42382567",
                "miles": "207285.962987446"
            },
            "orbiting_body": "Moon"
        }
    ],
    "orbital_data": {
        "orbit_id": "7",
        "orbit_determination_date": "2019-04-20 07:25:56",
        "first_observation_date": "2019-02-28",
        "last_observation_date": "2019-03-09",
        "data_arc_in_days": 9,
        "observations_used": 49,
        "orbit_uncertainty": "7",
        "minimum_orbit_intersection": ".00239953",
        "jupiter_tisserand_invariant": "3.191",
        "epoch_osculation": "2459000.5",
        "eccentricity": ".6943202615290969",
        "semi_major_axis": "2.337022012392469",
        "inclination": ".6143569184897668",
        "ascending_node_longitude": "350.5899441658273",
        "orbital_period": "1304.946273178048",
        "perihelion_distance": ".7143802775488737",
        "perihelion_argument": "95.66738468683975",
        "aphelion_distance": "3.959663747236065",
        "perihelion_time": "2458498.608192017390",
        "mean_anomaly": "138.4586128850436",
        "mean_motion": ".2758734266685639",
        "equinox": "J2000",
        "orbit_class": {
            "orbit_class_type": "APO",
            "orbit_class_description": "Near-Earth asteroid orbits which cross the Earth’s orbit similar to that of 1862 Apollo",
            "orbit_class_range": "a (semi-major axis) > 1.0 AU; q (perihelion) < 1.017 AU"
        }
    },
    "is_sentry_object": false
}